{"type": "FeatureCollection", "features": [{"type": "Feature", "properties": {"norad_id": 24876, "name": "GPS BIIR-2  (PRN 13)", "group": "gps-ops", "lat": -55.81383838158456, "lon": 20.635179863018795, "alt_km": 20395.847641866127, "timestamp": "2025-12-09T14:52:26.420551+00:00", "meta": {"OBJECT_NAME": "GPS BIIR-2  (PRN 13)", "OBJECT_ID": "1997-035A", "EPOCH": "2025-12-08T17:51:24.025248", "MEAN_MOTION": 2.00563531, "ECCENTRICITY": 0.0096734, "INCLINATION": 55.8934, "RA_OF_ASC_NODE": 106.0252, "ARG_OF_PERICENTER": 57.0084, "MEAN_ANOMALY": 303.8909, "EPHEMERIS_TYPE": 0, "CLASSIFICATION_TYPE": "U", "NORAD_CAT_ID": 24876, "ELEMENT_SET_NO": 999, "REV_AT_EPOCH": 20813, "BSTAR": 0, "MEAN_MOTION_DOT": 1.8e-07, "MEAN_MOTION_DDOT": 0}, "tle": {"line1": "1 24876U 97035A   25342.74402807  .00000018  00000+0  00000+0 0  9996", "line2": "2 24876  55.8934 106.0252 0096734  57.0084 303.8909  2.00563531208133"}}, "geometry": {"type": "Point", "coordinates": [20.635179863018795, -55.81383838158456]}}, {"type": "Feature", "properties": {"norad_id": 26360, "name": "GPS BIIR-4  (PRN 20)", "group": "gps-ops", "lat": 4.44926692098406, "lon": 30.098301873963532, "alt_km": 20238.781787783948, "timestamp": "2025-12-09T14:52:26.420578+00:00", "meta": {"OBJECT_NAME": "GPS BIIR-4  (PRN 20)", "OBJECT_ID": "2000-025A", "EPOCH": "2025-12-09T04:14:58.003872", "MEAN_MOTION": 2.00567914, "ECCENTRICITY": 0.00388478, "INCLINATION": 55.0431, "RA_OF_ASC_NODE": 26.982, "ARG_OF_PERICENTER": 241.6461, "MEAN_ANOMALY": 163.8162, "EPHEMERIS_TYPE": 0, "CLASSIFICATION_TYPE": "U", "NORAD_CAT_ID": 26360, "ELEMENT_SET_NO": 999, "REV_AT_EPOCH": 18746, "BSTAR": 0, "MEAN_MOTION_DOT": -9.2e-07, "MEAN_MOTION_DDOT": 0}, "tle": {"line1": "1 26360U 00025A   25343.17706023 -.00000092  00000+0  00000+0 0  9997", "line2": "2 26360  55.0431  26.9820 0038847 241.6461 163.8162  2.00567914187465"}}, "geometry": {"type": "Point", "coordinates": [30.098301873963532, 4.44926692098406]}}, {"type": "Feature", "properties": {"norad_id": 26407, "name": "GPS BIIR-5  (PRN 22)", "group": "gps-ops", "lat": -18.837621948832126, "lon": 56.57875008575453, "alt_km": 20230.215789403843, "timestamp": "2025-12-09T14:52:26.420595+00:00", "meta": {"OBJECT_NAME": "GPS BIIR-5  (PRN 22)", "OBJECT_ID": "2000-040A", "EPOCH": "2025-12-09T01:51:39.036096", "MEAN_MOTION": 2.00567849, "ECCENTRICITY": 0.01262118, "INCLINATION": 54.8916, "RA_OF_ASC_NODE": 222.7147, "ARG_OF_PERICENTER": 301.7415, "MEAN_ANOMALY": 231.4474, "EPHEMERIS_TYPE": 0, "CLASSIFICATION_TYPE": "U", "NORAD_CAT_ID": 26407, "ELEMENT_SET_NO": 999, "REV_AT_EPOCH": 18613, "BSTAR": 0, "MEAN_MOTION_DOT": 8e-08, "MEAN_MOTION_DDOT": 0}, "tle": {"line1": "1 26407U 00040A   25343.07753514  .00000008  00000+0  00000+0 0  9998", "line2": "2 26407  54.8916 222.7147 0126211 301.7415 231.4474  2.00567849186138"}}, "geometry": {"type": "Point", "coordinates": [56.57875008575453, -18.837621948832126]}}, {"type": "Feature", "properties": {"norad_id": 27663, "name": "GPS BIIR-8  (PRN 16)", "group": "gps-ops", "lat": -17.160479059644768, "lon": -150.01108540297167, "alt_km": 20063.198938421367, "timestamp": "2025-12-09T14:52:26.420609+00:00", "meta": {"OBJECT_NAME": "GPS BIIR-8  (PRN 16)", "OBJECT_ID": "2003-005A", "EPOCH": "2025-12-09T07:01:40.181952", "MEAN_MOTION": 2.00571042, "ECCENTRICITY": 0.01473164, "INCLINATION": 54.9241, "RA_OF_ASC_NODE": 222.5154, "ARG_OF_PERICENTER": 51.7525, "MEAN_ANOMALY": 52.7373, "EPHEMERIS_TYPE": 0, "CLASSIFICATION_TYPE": "U", "NORAD_CAT_ID": 27663, "ELEMENT_SET_NO": 999, "REV_AT_EPOCH": 16750, "BSTAR": 0, "MEAN_MOTION_DOT": 6e-08, "MEAN_MOTION_DDOT": 0}, "tle": {"line1": "1 27663U 03005A   25343.29282618  .00000006  00000+0  00000+0 0  9991", "line2": "2 27663  54.9241 222.5154 0147316  51.7525  52.7373  2.00571042167506"}}, "geometry": {"type": "Point", "coordinates": [-150.01108540297167, -17.160479059644768]}}, {"type": "Feature", "properties": {"norad_id": 28190, "name": "GPS BIIR-11 (PRN 19)", "group": "gps-ops", "lat": 32.61807619713107, "lon": 76.71108869878165, "alt_km": 19925.206136314326, "timestamp": "2025-12-09T14:52:26.420622+00:00", "meta": {"OBJECT_NAME": "GPS BIIR-11 (PRN 19)", "OBJECT_ID": "2004-009A", "EPOCH": "2025-12-09T02:41:41.936352", "MEAN_MOTION": 2.00560834, "ECCENTRICITY": 0.01083049, "INCLINATION": 54.989, "RA_OF_ASC_NODE": 283.3651, "ARG_OF_PERICENTER": 167.5856, "MEAN_ANOMALY": 325.415, "EPHEMERIS_TYPE": 0, "CLASSIFICATION_TYPE": "U", "NORAD_CAT_ID": 28190, "ELEMENT_SET_NO": 999, "REV_AT_EPOCH": 15913, "BSTAR": 0, "MEAN_MOTION_DOT": -5.3e-07, "MEAN_MOTION_DDOT": 0}, "tle": {"line1": "1 28190U 04009A   25343.11229093 -.00000053  00000+0  00000+0 0  9994", "line2": "2 28190  54.9890 283.3651 0108304 167.5856 325.4150  2.00560834159136"}}, "geometry": {"type": "Point", "coordinates": [76.71108869878165, 32.61807619713107]}}, {"type": "Feature", "properties": {"norad_id": 28474, "name": "GPS BIIR-13 (PRN 02)", "group": "gps-ops", "lat": -14.413195658441111, "lon": 162.79956582024013, "alt_km": 20342.573368705172, "timestamp": "2025-12-09T14:52:26.420635+00:00", "meta": {"OBJECT_NAME": "GPS BIIR-13 (PRN 02)", "OBJECT_ID": "2004-045A", "EPOCH": "2025-12-08T20:14:45.178080", "MEAN_MOTION": 2.0056922, "ECCENTRICITY": 0.0170688, "INCLINATION": 55.2426, "RA_OF_ASC_NODE": 332.5625, "ARG_OF_PERICENTER": 309.0781, "MEAN_ANOMALY": 49.896, "EPHEMERIS_TYPE": 0, "CLASSIFICATION_TYPE": "U", "NORAD_CAT_ID": 28474, "ELEMENT_SET_NO": 999, "REV_AT_EPOCH": 15461, "BSTAR": 0, "MEAN_MOTION_DOT": -8.3e-07, "MEAN_MOTION_DDOT": 0}, "tle": {"line1": "1 28474U 04045A   25342.84357845 -.00000083  00000+0  00000+0 0  9998", "line2": "2 28474  55.2426 332.5625 0170688 309.0781  49.8960  2.00569220154614"}}, "geometry": {"type": "Point", "coordinates": [162.79956582024013, -14.413195658441111]}}, {"type": "Feature", "properties": {"norad_id": 28874, "name": "GPS BIIRM-1 (PRN 17)", "group": "gps-ops", "lat": 18.528882955027257, "lon": 87.26570338087726, "alt_km": 20429.74440495609, "timestamp": "2025-12-09T14:52:26.420647+00:00", "meta": {"OBJECT_NAME": "GPS BIIRM-1 (PRN 17)", "OBJECT_ID": "2005-038A", "EPOCH": "2025-12-09T01:52:55.801632", "MEAN_MOTION": 2.0057855, "ECCENTRICITY": 0.01317498, "INCLINATION": 55.0352, "RA_OF_ASC_NODE": 280.8483, "ARG_OF_PERICENTER": 293.4065, "MEAN_ANOMALY": 193.8993, "EPHEMERIS_TYPE": 0, "CLASSIFICATION_TYPE": "U", "NORAD_CAT_ID": 28874, "ELEMENT_SET_NO": 999, "REV_AT_EPOCH": 14802, "BSTAR": 0, "MEAN_MOTION_DOT": -5e-07, "MEAN_MOTION_DDOT": 0}, "tle": {"line1": "1 28874U 05038A   25343.07842363 -.00000050  00000+0  00000+0 0  9999", "line2": "2 28874  55.0352 280.8483 0131749 293.4065 193.8993  2.00578550148027"}}, "geometry": {"type": "Point", "coordinates": [87.26570338087726, 18.528882955027257]}}, {"type": "Feature", "properties": {"norad_id": 29486, "name": "GPS BIIRM-2 (PRN 31)", "group": "gps-ops", "lat": 45.97560050899692, "lon": -153.9653766165575, "alt_km": 19896.592571572528, "timestamp": "2025-12-09T14:52:26.420660+00:00", "meta": {"OBJECT_NAME": "GPS BIIRM-2 (PRN 31)", "OBJECT_ID": "2006-042A", "EPOCH": "2025-12-09T06:45:25.534656", "MEAN_MOTION": 2.00554233, "ECCENTRICITY": 0.01073632, "INCLINATION": 54.6937, "RA_OF_ASC_NODE": 158.8779, "ARG_OF_PERICENTER": 51.8785, "MEAN_ANOMALY": 125.5257, "EPHEMERIS_TYPE": 0, "CLASSIFICATION_TYPE": "U", "NORAD_CAT_ID": 29486, "ELEMENT_SET_NO": 999, "REV_AT_EPOCH": 14058, "BSTAR": 0, "MEAN_MOTION_DOT": 6.5e-07, "MEAN_MOTION_DDOT": 0}, "tle": {"line1": "1 29486U 06042A   25343.28154554  .00000065  00000+0  00000+0 0  9991", "line2": "2 29486  54.6937 158.8779 0107363  51.8785 125.5257  2.00554233140583"}}, "geometry": {"type": "Point", "coordinates": [-153.9653766165575, 45.97560050899692]}}, {"type": "Feature", "properties": {"norad_id": 29601, "name": "GPS BIIRM-3 (PRN 12)", "group": "gps-ops", "lat": 45.437431906832146, "lon": -3.8446707589180846, "alt_km": 19978.180302337787, "timestamp": "2025-12-09T14:52:26.420671+00:00", "meta": {"OBJECT_NAME": "GPS BIIRM-3 (PRN 12)", "OBJECT_ID": "2006-052A", "EPOCH": "2025-12-08T22:59:17.672352", "MEAN_MOTION": 2.00573222, "ECCENTRICITY": 0.00877213, "INCLINATION": 54.9712, "RA_OF_ASC_NODE": 221.5484, "ARG_OF_PERICENTER": 87.3994, "MEAN_ANOMALY": 273.6864, "EPHEMERIS_TYPE": 0, "CLASSIFICATION_TYPE": "U", "NORAD_CAT_ID": 29601, "ELEMENT_SET_NO": 999, "REV_AT_EPOCH": 13959, "BSTAR": 0, "MEAN_MOTION_DOT": 1e-07, "MEAN_MOTION_DDOT": 0}, "tle": {"line1": "1 29601U 06052A   25342.95784343  .00000010  00000+0  00000+0 0  9999", "line2": "2 29601  54.9712 221.5484 0087721  87.3994 273.6864  2.00573222139595"}}, "geometry": {"type": "Point", "coordinates": [-3.8446707589180846, 45.437431906832146]}}, {"type": "Feature", "properties": {"norad_id": 32260, "name": "GPS BIIRM-4 (PRN 15)", "group": "gps-ops", "lat": -52.630484723323875, "lon": -19.864347672470252, "alt_km": 20621.1776407849, "timestamp": "2025-12-09T14:52:26.420683+00:00", "meta": {"OBJECT_NAME": "GPS BIIRM-4 (PRN 15)", "OBJECT_ID": "2007-047A", "EPOCH": "2025-12-09T06:19:25.464288", "MEAN_MOTION": 2.00564591, "ECCENTRICITY": 0.01642696, "INCLINATION": 53.953, "RA_OF_ASC_NODE": 87.9021, "ARG_OF_PERICENTER": 85.2089, "MEAN_ANOMALY": 276.6577, "EPHEMERIS_TYPE": 0, "CLASSIFICATION_TYPE": "U", "NORAD_CAT_ID": 32260, "ELEMENT_SET_NO": 999, "REV_AT_EPOCH": 13300, "BSTAR": 0, "MEAN_MOTION_DOT": -1.5e-07, "MEAN_MOTION_DDOT": 0}, "tle": {"line1": "1 32260U 07047A   25343.26348917 -.00000015  00000+0  00000+0 0  9993", "line2": "2 32260  53.9530  87.9021 0164269  85.2089 276.6577  2.00564591133006"}}, "geometry": {"type": "Point", "coordinates": [-19.864347672470252, -52.630484723323875]}}]}